start=new Date('2021-09-06T00:00:00.000Z').valueOf();
sats=[{"COUNTRY_CODE":"US","APOAPSIS":"548.157","CLASSIFICATION_TYPE":"U","ECCENTRICITY":"0.00013440","FILE":"3109348","ARG_OF_PERICENTER":"52.4740","TIME_SYSTEM":"UTC","MEAN_MOTION_DOT":"0.00001204","OBJECT_ID":"2021-009AV","MEAN_ANOMALY":"307.6371","GP_ID":"184165086","TLE_LINE2":"2 47591  53.0542 211.1380 0001344  52.4740 307.6371 15.06395927 32691","NORAD_CAT_ID":"47591","DECAY_DATE":null,"TLE_LINE1":"1 47591U 21009AV  21248.61099663  .00001204  00000-0  99721-4 0  9994","EPOCH":"2021-09-05T14:39:50.108832","RCS_SIZE":"LARGE","PERIOD":"95.592","EPHEMERIS_TYPE":"0","SITE":"AFETR","OBJECT_NAME":"STARLINK-1996","REV_AT_EPOCH":"3269","ELEMENT_SET_NO":"999","SEMIMAJOR_AXIS":"6925.361","CENTER_NAME":"EARTH","INCLINATION":"53.0542","MEAN_MOTION_DDOT":"0.0000000000000","OBJECT_TYPE":"PAYLOAD","PERIAPSIS":"546.295","BSTAR":"0.00009972100000","MEAN_ELEMENT_THEORY":"SGP4","RA_OF_ASC_NODE":"211.1380","MEAN_MOTION":"15.06395927","REF_FRAME":"TEME","LAUNCH_DATE":"2021-02-04"},{"MEAN_MOTION":"15.06408888","RA_OF_ASC_NODE":"231.0125","REF_FRAME":"TEME","LAUNCH_DATE":"2021-02-04","PERIAPSIS":"546.218","BSTAR":"0.00008211800000","MEAN_ELEMENT_THEORY":"SGP4","CENTER_NAME":"EARTH","INCLINATION":"53.0553","MEAN_MOTION_DDOT":"0.0000000000000","OBJECT_TYPE":"PAYLOAD","SITE":"AFETR","OBJECT_NAME":"STARLINK-1997","REV_AT_EPOCH":"3241","ELEMENT_SET_NO":"999","SEMIMAJOR_AXIS":"6925.321","EPOCH":"2021-09-05T15:24:56.524896","RCS_SIZE":"LARGE","PERIOD":"95.592","EPHEMERIS_TYPE":"0","GP_ID":"184165336","TLE_LINE2":"2 47592  53.0553 231.0125 0001398  58.8585 301.2541 15.06408888 32418","NORAD_CAT_ID":"47592","DECAY_DATE":null,"TLE_LINE1":"1 47592U 21009AW  21248.64232089  .00000942  00000-0  82118-4 0  9999","TIME_SYSTEM":"UTC","MEAN_MOTION_DOT":"0.00000942","OBJECT_ID":"2021-009AW","MEAN_ANOMALY":"301.2541","COUNTRY_CODE":"US","APOAPSIS":"548.154","CLASSIFICATION_TYPE":"U","ECCENTRICITY":"0.00013980","FILE":"3109348","ARG_OF_PERICENTER":"58.8585"},{"EPOCH":"2021-09-05T16:18:02.291616","RCS_SIZE":"LARGE","PERIOD":"95.592","EPHEMERIS_TYPE":"0","GP_ID":"184166088","TLE_LINE2":"2 47593  53.0550 230.8563 0001713  69.6060 290.5113 15.06396974 32426","NORAD_CAT_ID":"47593","DECAY_DATE":null,"TLE_LINE1":"1 47593U 21009AX  21248.67919319  .00000620  00000-0  60535-4 0  9993","TIME_SYSTEM":"UTC","MEAN_MOTION_DOT":"0.00000620","OBJECT_ID":"2021-009AX","MEAN_ANOMALY":"290.5113","COUNTRY_CODE":"US","APOAPSIS":"548.409","CLASSIFICATION_TYPE":"U","ECCENTRICITY":"0.00017130","FILE":"3109348","ARG_OF_PERICENTER":"69.6060","RA_OF_ASC_NODE":"230.8563","MEAN_MOTION":"15.06396974","REF_FRAME":"TEME","LAUNCH_DATE":"2021-02-04","PERIAPSIS":"546.037","BSTAR":"0.00006053500000","MEAN_ELEMENT_THEORY":"SGP4","CENTER_NAME":"EARTH","INCLINATION":"53.0550","MEAN_MOTION_DDOT":"0.0000000000000","OBJECT_TYPE":"PAYLOAD","SITE":"AFETR","OBJECT_NAME":"STARLINK-1998","REV_AT_EPOCH":"3242","ELEMENT_SET_NO":"999","SEMIMAJOR_AXIS":"6925.358"},{"RA_OF_ASC_NODE":"230.9945","MEAN_MOTION":"15.06398653","REF_FRAME":"TEME","LAUNCH_DATE":"2021-02-04","PERIAPSIS":"546.209","BSTAR":"0.00007347900000","MEAN_ELEMENT_THEORY":"SGP4","CENTER_NAME":"EARTH","INCLINATION":"53.0550","MEAN_MOTION_DDOT":"0.0000000000000","OBJECT_TYPE":"PAYLOAD","SITE":"AFETR","OBJECT_NAME":"STARLINK-1999","REV_AT_EPOCH":"3241","ELEMENT_SET_NO":"999","SEMIMAJOR_AXIS":"6925.353","EPOCH":"2021-09-05T15:30:17.794656","RCS_SIZE":"LARGE","PERIOD":"95.592","EPHEMERIS_TYPE":"0","NORAD_CAT_ID":"47594","TLE_LINE2":"2 47594  53.0550 230.9945 0001457  68.9736 291.1409 15.06398653 32419","GP_ID":"184166335","DECAY_DATE":null,"TLE_LINE1":"1 47594U 21009AY  21248.64603929  .00000813  00000-0  73479-4 0  9993","TIME_SYSTEM":"UTC","MEAN_MOTION_DOT":"0.00000813","OBJECT_ID":"2021-009AY","MEAN_ANOMALY":"291.1409","COUNTRY_CODE":"US","APOAPSIS":"548.227","CLASSIFICATION_TYPE":"U","ECCENTRICITY":"0.00014570","FILE":"3109348","ARG_OF_PERICENTER":"68.9736"},{"MEAN_ELEMENT_THEORY":"SGP4","PERIAPSIS":"546.336","BSTAR":"0.00005752200000","REF_FRAME":"TEME","LAUNCH_DATE":"2021-02-04","RA_OF_ASC_NODE":"231.9555","MEAN_MOTION":"15.06393390","REV_AT_EPOCH":"3238","OBJECT_NAME":"STARLINK-2000","SEMIMAJOR_AXIS":"6925.369","ELEMENT_SET_NO":"999","SITE":"AFETR","INCLINATION":"53.0562","OBJECT_TYPE":"PAYLOAD","MEAN_MOTION_DDOT":"0.0000000000000","CENTER_NAME":"EARTH","TLE_LINE1":"1 47595U 21009AZ  21248.43224368  .00000575  00000-0  57522-4 0  9993","NORAD_CAT_ID":"47595","TLE_LINE2":"2 47595  53.0562 231.9555 0001297  56.3709 303.7404 15.06393390 32388","GP_ID":"184141149","DECAY_DATE":null,"PERIOD":"95.593","EPHEMERIS_TYPE":"0","RCS_SIZE":"LARGE","EPOCH":"2021-09-05T10:22:25.853952","ECCENTRICITY":"0.00012970","CLASSIFICATION_TYPE":"U","ARG_OF_PERICENTER":"56.3709","FILE":"3109252","COUNTRY_CODE":"US","APOAPSIS":"548.132","OBJECT_ID":"2021-009AZ","MEAN_ANOMALY":"303.7404","MEAN_MOTION_DOT":"0.00000575","TIME_SYSTEM":"UTC"},{"MEAN_ELEMENT_THEORY":"SGP4","BSTAR":"0.00005622500000","PERIAPSIS":"546.018","LAUNCH_DATE":"2021-02-04","REF_FRAME":"TEME","RA_OF_ASC_NODE":"231.0444","MEAN_MOTION":"15.06388533","SEMIMAJOR_AXIS":"6925.384","ELEMENT_SET_NO":"999","REV_AT_EPOCH":"3241","OBJECT_NAME":"STARLINK-2001","SITE":"AFETR","OBJECT_TYPE":"PAYLOAD","MEAN_MOTION_DDOT":"0.0000000000000","INCLINATION":"53.0549","CENTER_NAME":"EARTH","TLE_LINE1":"1 47596U 21009BA  21248.63497176  .00000556  00000-0  56225-4 0  9993","DECAY_DATE":null,"TLE_LINE2":"2 47596  53.0549 231.0444 0001777  63.7946 296.3225 15.06388533 32415","NORAD_CAT_ID":"47596","GP_ID":"184165837","EPHEMERIS_TYPE":"0","PERIOD":"95.593","RCS_SIZE":"LARGE","EPOCH":"2021-09-05T15:14:21.560064","ARG_OF_PERICENTER":"63.7946","FILE":"3109348","ECCENTRICITY":"0.00017770","CLASSIFICATION_TYPE":"U","APOAPSIS":"548.479","COUNTRY_CODE":"US","MEAN_ANOMALY":"296.3225","OBJECT_ID":"2021-009BA","MEAN_MOTION_DOT":"0.00000556","TIME_SYSTEM":"UTC"},{"DECAY_DATE":null,"TLE_LINE2":"2 47597  53.0550 230.7818 0001324  43.8277 316.2817 15.06400063 32426","NORAD_CAT_ID":"47597","GP_ID":"184166589","TLE_LINE1":"1 47597U 21009BB  21248.69394298  .00000824  00000-0  74205-4 0  9997","RCS_SIZE":"LARGE","EPOCH":"2021-09-05T16:39:16.673472","EPHEMERIS_TYPE":"0","PERIOD":"95.592","APOAPSIS":"548.130","COUNTRY_CODE":"US","ARG_OF_PERICENTER":"43.8277","FILE":"3109348","ECCENTRICITY":"0.00013240","CLASSIFICATION_TYPE":"U","MEAN_MOTION_DOT":"0.00000824","TIME_SYSTEM":"UTC","MEAN_ANOMALY":"316.2817","OBJECT_ID":"2021-009BB","BSTAR":"0.00007420500000","PERIAPSIS":"546.296","MEAN_ELEMENT_THEORY":"SGP4","MEAN_MOTION":"15.06400063","RA_OF_ASC_NODE":"230.7818","LAUNCH_DATE":"2021-02-04","REF_FRAME":"TEME","SITE":"AFETR","ELEMENT_SET_NO":"999","SEMIMAJOR_AXIS":"6925.348","REV_AT_EPOCH":"3242","OBJECT_NAME":"STARLINK-2002","CENTER_NAME":"EARTH","OBJECT_TYPE":"PAYLOAD","MEAN_MOTION_DDOT":"0.0000000000000","INCLINATION":"53.0550"},{"TLE_LINE2":"2 47598  53.0752 200.6367 0001929  50.9452 309.1709 15.06402672 32857","NORAD_CAT_ID":"47598","GP_ID":"184166836","DECAY_DATE":null,"TLE_LINE1":"1 47598U 21009BC  21248.70406784 -.00000869  00000-0 -39432-4 0  9998","RCS_SIZE":"LARGE","EPOCH":"2021-09-05T16:53:51.461376","PERIOD":"95.592","EPHEMERIS_TYPE":"0","COUNTRY_CODE":"US","APOAPSIS":"548.541","ECCENTRICITY":"0.00019290","CLASSIFICATION_TYPE":"U","ARG_OF_PERICENTER":"50.9452","FILE":"3109348","MEAN_MOTION_DOT":"-0.00000869","TIME_SYSTEM":"UTC","OBJECT_ID":"2021-009BC","MEAN_ANOMALY":"309.1709","PERIAPSIS":"545.869","BSTAR":"-0.00003943200000","MEAN_ELEMENT_THEORY":"SGP4","MEAN_MOTION":"15.06402672","RA_OF_ASC_NODE":"200.6367","REF_FRAME":"TEME","LAUNCH_DATE":"2021-02-04","SITE":"AFETR","REV_AT_EPOCH":"3285","OBJECT_NAME":"STARLINK-2003","SEMIMAJOR_AXIS":"6925.340","ELEMENT_SET_NO":"999","CENTER_NAME":"EARTH","INCLINATION":"53.0752","OBJECT_TYPE":"PAYLOAD","MEAN_MOTION_DDOT":"0.0000000000000"},{"APOAPSIS":"548.470","COUNTRY_CODE":"US","FILE":"3109252","ARG_OF_PERICENTER":"54.5611","CLASSIFICATION_TYPE":"U","ECCENTRICITY":"0.00018030","TIME_SYSTEM":"UTC","MEAN_MOTION_DOT":"-0.00000381","MEAN_ANOMALY":"305.5546","OBJECT_ID":"2021-009BD","DECAY_DATE":null,"TLE_LINE2":"2 47599  53.0558 191.3623 0001803  54.5611 305.5546 15.06397556 32966","GP_ID":"184140649","NORAD_CAT_ID":"47599","TLE_LINE1":"1 47599U 21009BD  21248.56124371 -.00000381  00000-0 -66636-5 0  9998","EPOCH":"2021-09-05T13:28:11.456544","RCS_SIZE":"LARGE","EPHEMERIS_TYPE":"0","PERIOD":"95.592","SITE":"AFETR","SEMIMAJOR_AXIS":"6925.356","ELEMENT_SET_NO":"999","OBJECT_NAME":"STARLINK-2004","REV_AT_EPOCH":"3296","CENTER_NAME":"EARTH","MEAN_MOTION_DDOT":"0.0000000000000","OBJECT_TYPE":"PAYLOAD","INCLINATION":"53.0558","BSTAR":"-0.00000666360000","PERIAPSIS":"545.972","MEAN_ELEMENT_THEORY":"SGP4","RA_OF_ASC_NODE":"191.3623","MEAN_MOTION":"15.06397556","LAUNCH_DATE":"2021-02-04","REF_FRAME":"TEME"},{"GP_ID":"184141391","TLE_LINE2":"2 47600  53.0689 192.6803 0010429  48.3709 311.8171 15.06399295 32923","NORAD_CAT_ID":"47600","DECAY_DATE":null,"TLE_LINE1":"1 47600U 21009BE  21248.25806325  .00002366  00000-0  17775-3 0  9994","RCS_SIZE":"LARGE","EPOCH":"2021-09-05T06:11:36.664800","PERIOD":"95.592","EPHEMERIS_TYPE":"0","COUNTRY_CODE":"US","APOAPSIS":"554.438","ECCENTRICITY":"0.00104290","CLASSIFICATION_TYPE":"U","ARG_OF_PERICENTER":"48.3709","FILE":"3109252","MEAN_MOTION_DOT":"0.00002366","TIME_SYSTEM":"UTC","OBJECT_ID":"2021-009BE","MEAN_ANOMALY":"311.8171","PERIAPSIS":"539.993","BSTAR":"0.00017775000000","MEAN_ELEMENT_THEORY":"SGP4","RA_OF_ASC_NODE":"192.6803","MEAN_MOTION":"15.06399295","REF_FRAME":"TEME","LAUNCH_DATE":"2021-02-04","SITE":"AFETR","REV_AT_EPOCH":"3292","OBJECT_NAME":"STARLINK-2005","SEMIMAJOR_AXIS":"6925.351","ELEMENT_SET_NO":"999","CENTER_NAME":"EARTH","INCLINATION":"53.0689","OBJECT_TYPE":"PAYLOAD","MEAN_MOTION_DDOT":"0.0000000000000"}];
